ORBCOMM FM20 [+]        
1 25416U 98046D   23356.71973844  .00001312  00000+0  50851-3 0  9995
2 25416  44.9936 224.8980 0001147  23.7312 336.3588 14.34709152326338
ORBCOMM FM13 [+]        
1 25420U 98046H   23356.78533330  .00001526  00000+0  58243-3 0  9999
2 25420  44.9970 228.4799 0004977  68.2546 291.8831 14.34777599326398
ORBCOMM FM21 [-]        
1 25475U 98053A   23355.96706550  .00001667  00000+0  63197-3 0  9992
2 25475  45.0103 316.4991 0002062 322.1536  37.9166 14.34776026319165
ORBCOMM FM22 [-]        
1 25476U 98053B   23355.92082312  .00001884  00000+0  70205-3 0  9991
2 25476  45.0098 314.5119 0003420 346.5770  13.4986 14.35184652319145
ORBCOMM FM23 [-]        
1 25477U 98053C   23355.92787793  .00001833  00000+0  68986-3 0  9994
2 25477  45.0102 319.1341 0002860 337.4041  22.6680 14.34770933319300
